COSMOS 2433 (720)       
1 32275U 07052A   22235.25001770 -.00000084  00000+0  00000+0 0  9990
2 32275  66.0804   2.4551 0002621 191.3719 193.5443  2.13104183115395
COSMOS 2432 (719)       
1 32276U 07052B   22235.36496544 -.00000083  00000+0  00000+0 0  9999
2 32276  66.0949   2.5529 0007694 333.5205  87.7232  2.13103354115396
COSMOS 2434 (721)       
1 32393U 07065A   22235.56750044  .00000083  00000+0  00000+0 0  9992
2 32393  64.3760 239.1349 0000675 174.0228 344.2562  2.13103095114108
COSMOS 2436 (723)       
1 32395U 07065C   22235.41659932  .00000084  00000+0  00000+0 0  9993
2 32395  64.3846 239.1985 0014794 350.4967 187.8561  2.13102892114034
COSMOS 2456 (730)       
1 36111U 09070A   22235.38816900 -.00000012  00000+0  00000+0 0  9999
2 36111  64.3680 118.7561 0003533 318.8917 226.4645  2.13099362 98765
COSMOS 2457 (733)       
1 36112U 09070B   22235.21213269 -.00000015  00000+0  00000+0 0  9994
2 36112  64.3511 118.6358 0004795 161.1433  16.9825  2.13101564 98765
COSMOS 2461 (735)       
1 36401U 10007B   22235.26570368 -.00000085  00000+0  00000+0 0  9995
2 36401  65.9648   1.2832 0019081  12.2449 242.0437  2.13103689 97114
COSMOS 2460 (732)       
1 36402U 10007C   22235.44718877 -.00000084  00000+0  00000+0 0  9994
2 36402  65.9521   1.2264 0002235 120.3462 222.2401  2.13106403 97111
COSMOS 2464 (736)       
1 37139U 10041C   22235.29404488  .00000084  00000+0  00000+0 0  9992
2 37139  63.9752 238.1866 0028015   5.6575 160.5659  2.13100786 93175
COSMOS 2476 (744)       
1 37867U 11064A   22235.67834671 -.00000009  00000+0  00000+0 0  9997
2 37867  64.6562 120.1284 0021128 235.9074  78.1260  2.13101853 84116
COSMOS 2477 (745)       
1 37868U 11064B   22235.29742640 -.00000014  00000+0  00000+0 0  9996
2 37868  64.6636 120.2066 0018486 236.9249 322.9641  2.13101735 84062
COSMOS 2475 (743)       
1 37869U 11064C   22235.33104641 -.00000014  00000+0  00000+0 0  9995
2 37869  64.6700 120.2135 0022628 255.1722 288.6073  2.13102127 84078
COSMOS 2485 (747)       
1 39155U 13019A   22235.48746936 -.00000012  00000+0  00000+0 0  9990
2 39155  64.8190 120.5776 0021646 231.8615 340.1400  2.13102028 72589
COSMOS 2492 (754)       
1 39620U 14012A   22235.23338513 -.00000085  00000+0  00000+0 0  9992
2 39620  65.8384   0.9051 0010724 326.7140  84.7726  2.13103220 65535
COSMOS 2500 (755)       
1 40001U 14032A   22235.37931156 -.00000085  00000+0  00000+0 0  9996
2 40001  65.7756   0.7556 0007142 184.3159 197.5988  2.13102303 63754
COSMOS 2501 (702K)      
1 40315U 14075A   22235.36868552  .00000083  00000+0  00000+0 0  9996
2 40315  63.6822 238.8272 0019544 212.3580 329.7335  2.13101436 60153
COSMOS 2514 (751)       
1 41330U 16008A   22235.11090978 -.00000086  00000+0  00000+0 0  9998
2 41330  65.5764   0.4414 0010899 202.3395 157.6186  2.13102808 50914
COSMOS 2516 (753)       
1 41554U 16032A   22235.47346133  .00000083  00000+0  00000+0 0  9995
2 41554  63.9086 239.1183 0015034 216.5071 325.6917  2.13106400 48524
COSMOS 2522 (752)       
1 42939U 17055A   22235.74976515  .00000082  00000+0  00000+0 0  9991
2 42939  64.1419 239.5234 0010160 244.2221   5.6252  2.13101989 38282
COSMOS 2527 (756)       
1 43508U 18053A   22235.14559882 -.00000016  00000+0  00000+0 0  9999
2 43508  64.9815 120.6030 0007590 228.9259 309.5137  2.13102550 32568
COSMOS 2529 (757)       
1 43687U 18086A   22235.77655021  .00000082  00000+0  00000+0 0  9996
2 43687  64.3570 239.8570 0011913 263.1221 322.8064  2.13102200 29592
COSMOS 2534 (758)       
1 44299U 19030A   22235.14538789  .00000086  00000+0  00000+0 0  9992
2 44299  64.4302 239.7697 0014165 281.1665 315.0790  2.13101909 25220
COSMOS 2544 (759)       
1 44850U 19088A   22235.74696344 -.00000007  00000+0  16595+1 0  9997
2 44850  64.9675 120.4338 0011923 258.9364  64.2599  2.13102289 21000
COSMOS 2545 (760)       
1 45358U 20018A   22235.39818973 -.00000086  00000+0  00000+0 0  9991
2 45358  64.9142   0.9847 0007976 233.4715  31.5575  2.13102719 18950
COSMOS 2547 (705K)      
1 46805U 20075A   22235.46919691  .00000085  00000+0  00000+0 0  9997
2 46805  64.6540 239.2027 0008730 245.8368 286.7499  2.13103011 14203
COSMOS 2557 (706K)      
1 52984U 22075A   22235.49145574 -.00000084  00000+0  10000-3 0  9993
2 52984  64.8195   3.1826 0010599 279.2173 148.5025  2.13101706  1005
